*******************************************************************************
Ephemeris / WWW_USER Fri Mar  7 10:49:46 2025 Pasadena, USA      / Horizons    
*******************************************************************************
Target body name: (2018 TS1)                      {source: JPL#6}
Center body name: Earth (399)                     {source: DE441}
Center-site name: Mauna Kea
*******************************************************************************
Start time      : A.D. 2018-Sep-14 04:35:00.0000 UT      
Stop  time      : A.D. 2018-Sep-14 16:00:00.0000 UT      
Step-size       : 1 minutes
*******************************************************************************
Target pole/equ : undefined
Target radii    : undefined                                                    
Center geodetic : 204.5278, 19.8260847, 4.21024   {E-lon(deg),Lat(deg),Alt(km)}
Center cylindric: 204.5278, 6006.35451, 2151.0229 {E-lon(deg),Dxy(km),Dz(km)}
Center pole/equ : ITRF93                          {East-longitude positive}
Center radii    : 6378.137, 6378.137, 6356.752 km {Equator_a, b, pole_c}       
Target primary  : Sun
Vis. interferer : MOON (R_eq= 1737.400) km        {source: DE441}
Rel. light bend : Sun                             {source: DE441}
Rel. lght bnd GM: 1.3271E+11 km^3/s^2                                          
Small-body perts: Yes                             {source: SB441-N16}
Atmos refraction: NO (AIRLESS)
RA format       : HMS
Time format     : CAL 
Calendar mode   : Mixed Julian/Gregorian
RTS-only print  : NO       
EOP file        : eop.250306.p250602                                           
EOP coverage    : DATA-BASED 1962-JAN-20 TO 2025-MAR-06. PREDICTS-> 2025-JUN-01
Units conversion: 1 au= 149597870.700 km, c= 299792.458 km/s, 1 day= 86400.0 s 
Table cut-offs 1: Elevation (-90.0deg=NO ),Airmass (>38.000=NO), Daylight (YES)
Table cut-offs 2: Solar elongation (  0.0,180.0=NO ),Local Hour Angle( 0.0=NO )
Table cut-offs 3: RA/DEC angular rate (     0.0=NO )                           
*******************************************************************************
Initial IAU76/J2000 heliocentric ecliptic osculating elements (au, days, deg.):
  EPOCH=  2458397.5 ! 2018-Oct-06.00 (TDB)         Residual RMS= .30565        
   EC= .4232280089037878   QR= .7951431742456924   TP= 2458457.9340165281      
   OM= 356.454891650426    W=  97.01949783285009   IN= 2.243887958983723       
  Equivalent ICRF heliocentric cartesian coordinates (au, au/d):
   X= 1.037748414669454E+00  Y= 2.036665248544260E-01  Z= 1.007134111375925E-01
  VX=-1.028941390482545E-02 VY= 1.387292408111162E-02 VZ= 6.642652492995660E-03
Asteroid physical parameters (km, seconds, rotational period in hours):        
   GM= n.a.                RAD= n.a.               ROTPER= n.a.                
   H= 25.7                 G= .150                 B-V= n.a.                   
                           ALBEDO= n.a.            STYP= n.a.                  
*******************************************************************************
 Date__(UT)__HR:MN     R.A._________(ICRF)_________DEC
******************************************************
$$SOE
 2018-Sep-14 10:44     00 41 30.495514 +04 03 05.79964
 2018-Sep-14 10:45     00 41 30.484355 +04 03 06.20167
 2018-Sep-14 10:46     00 41 30.473185 +04 03 06.60367
 2018-Sep-14 10:47     00 41 30.462004 +04 03 07.00562
 2018-Sep-14 10:48     00 41 30.450811 +04 03 07.40754
 2018-Sep-14 10:49     00 41 30.439607 +04 03 07.80942
 2018-Sep-14 10:50     00 41 30.428392 +04 03 08.21125
 2018-Sep-14 10:51     00 41 30.417167 +04 03 08.61305
 2018-Sep-14 10:52     00 41 30.405932 +04 03 09.01481
 2018-Sep-14 10:53     00 41 30.394686 +04 03 09.41653
 2018-Sep-14 10:54     00 41 30.383431 +04 03 09.81820
 2018-Sep-14 10:55     00 41 30.372166 +04 03 10.21984
 2018-Sep-14 10:56     00 41 30.360891 +04 03 10.62144
 2018-Sep-14 10:57     00 41 30.349607 +04 03 11.02300
 2018-Sep-14 10:58     00 41 30.338314 +04 03 11.42451
 2018-Sep-14 10:59     00 41 30.327012 +04 03 11.82599
 2018-Sep-14 11:00     00 41 30.315701 +04 03 12.22743
 2018-Sep-14 11:01     00 41 30.304383 +04 03 12.62883
 2018-Sep-14 11:02     00 41 30.293055 +04 03 13.03019
 2018-Sep-14 11:03     00 41 30.281720 +04 03 13.43150
 2018-Sep-14 11:04     00 41 30.270377 +04 03 13.83278
 2018-Sep-14 11:05     00 41 30.259027 +04 03 14.23402
 2018-Sep-14 11:06     00 41 30.247669 +04 03 14.63521
 2018-Sep-14 11:07     00 41 30.236304 +04 03 15.03637
 2018-Sep-14 11:08     00 41 30.224933 +04 03 15.43748
 2018-Sep-14 11:09     00 41 30.213554 +04 03 15.83856
 2018-Sep-14 11:10     00 41 30.202169 +04 03 16.23959
 2018-Sep-14 11:11     00 41 30.190778 +04 03 16.64059
 2018-Sep-14 11:12     00 41 30.179381 +04 03 17.04154
 2018-Sep-14 11:13     00 41 30.167977 +04 03 17.44245
 2018-Sep-14 11:14     00 41 30.156569 +04 03 17.84333
 2018-Sep-14 11:15     00 41 30.145155 +04 03 18.24416
 2018-Sep-14 11:16     00 41 30.133735 +04 03 18.64495
 2018-Sep-14 11:17     00 41 30.122311 +04 03 19.04570
 2018-Sep-14 11:18     00 41 30.110882 +04 03 19.44641
 2018-Sep-14 11:19     00 41 30.099448 +04 03 19.84708
 2018-Sep-14 11:20     00 41 30.088010 +04 03 20.24771
 2018-Sep-14 11:21     00 41 30.076568 +04 03 20.64829
 2018-Sep-14 11:22     00 41 30.065123 +04 03 21.04884
 2018-Sep-14 11:23     00 41 30.053673 +04 03 21.44935
 2018-Sep-14 11:24     00 41 30.042220 +04 03 21.84981
 2018-Sep-14 11:25     00 41 30.030764 +04 03 22.25024
 2018-Sep-14 11:26     00 41 30.019305 +04 03 22.65062
 2018-Sep-14 11:27     00 41 30.007843 +04 03 23.05096
 2018-Sep-14 11:28     00 41 29.996378 +04 03 23.45127
 2018-Sep-14 11:29     00 41 29.984911 +04 03 23.85153
 2018-Sep-14 11:30     00 41 29.973442 +04 03 24.25175
 2018-Sep-14 11:31  t  00 41 29.961971 +04 03 24.65193
 2018-Sep-14 11:32     00 41 29.950498 +04 03 25.05207
 2018-Sep-14 11:33     00 41 29.939024 +04 03 25.45217
 2018-Sep-14 11:34     00 41 29.927548 +04 03 25.85222
 2018-Sep-14 11:35     00 41 29.916072 +04 03 26.25224
 2018-Sep-14 11:36     00 41 29.904594 +04 03 26.65222
 2018-Sep-14 11:37     00 41 29.893116 +04 03 27.05215
 2018-Sep-14 11:38     00 41 29.881638 +04 03 27.45204
 2018-Sep-14 11:39     00 41 29.870159 +04 03 27.85190
 2018-Sep-14 11:40     00 41 29.858680 +04 03 28.25171
 2018-Sep-14 11:41     00 41 29.847202 +04 03 28.65148
 2018-Sep-14 11:42     00 41 29.835724 +04 03 29.05121
 2018-Sep-14 11:43     00 41 29.824247 +04 03 29.45090
 2018-Sep-14 11:44     00 41 29.812770 +04 03 29.85055
 2018-Sep-14 11:45     00 41 29.801295 +04 03 30.25016
 2018-Sep-14 11:46     00 41 29.789821 +04 03 30.64972
 2018-Sep-14 11:47     00 41 29.778349 +04 03 31.04925
 2018-Sep-14 11:48     00 41 29.766878 +04 03 31.44874
 2018-Sep-14 11:49     00 41 29.755409 +04 03 31.84818
 2018-Sep-14 11:50     00 41 29.743943 +04 03 32.24758
 2018-Sep-14 11:51     00 41 29.732479 +04 03 32.64695
 2018-Sep-14 11:52     00 41 29.721018 +04 03 33.04627
 2018-Sep-14 11:53     00 41 29.709559 +04 03 33.44555
 2018-Sep-14 11:54     00 41 29.698103 +04 03 33.84479
 2018-Sep-14 11:55     00 41 29.686651 +04 03 34.24399
 2018-Sep-14 11:56     00 41 29.675203 +04 03 34.64315
 2018-Sep-14 11:57     00 41 29.663758 +04 03 35.04227
 2018-Sep-14 11:58     00 41 29.652316 +04 03 35.44135
 2018-Sep-14 11:59     00 41 29.640880 +04 03 35.84039
 2018-Sep-14 12:00     00 41 29.629447 +04 03 36.23938
 2018-Sep-14 12:01     00 41 29.618019 +04 03 36.63834
 2018-Sep-14 12:02     00 41 29.606596 +04 03 37.03726
 2018-Sep-14 12:03     00 41 29.595178 +04 03 37.43613
 2018-Sep-14 12:04     00 41 29.583765 +04 03 37.83497
 2018-Sep-14 12:05     00 41 29.572357 +04 03 38.23376
 2018-Sep-14 12:06     00 41 29.560955 +04 03 38.63251
 2018-Sep-14 12:07     00 41 29.549559 +04 03 39.03123
 2018-Sep-14 12:08     00 41 29.538169 +04 03 39.42990
 2018-Sep-14 12:09     00 41 29.526786 +04 03 39.82853
 2018-Sep-14 12:10     00 41 29.515409 +04 03 40.22713
 2018-Sep-14 12:11     00 41 29.504038 +04 03 40.62568
 2018-Sep-14 12:12     00 41 29.492675 +04 03 41.02419
 2018-Sep-14 12:13     00 41 29.481319 +04 03 41.42266
 2018-Sep-14 12:14     00 41 29.469970 +04 03 41.82109
 2018-Sep-14 12:15     00 41 29.458629 +04 03 42.21948
 2018-Sep-14 12:16     00 41 29.447295 +04 03 42.61784
 2018-Sep-14 12:17     00 41 29.435970 +04 03 43.01615
 2018-Sep-14 12:18     00 41 29.424653 +04 03 43.41442
 2018-Sep-14 12:19     00 41 29.413344 +04 03 43.81265
 2018-Sep-14 12:20     00 41 29.402044 +04 03 44.21084
 2018-Sep-14 12:21     00 41 29.390753 +04 03 44.60899
 2018-Sep-14 12:22     00 41 29.379471 +04 03 45.00710
 2018-Sep-14 12:23     00 41 29.368198 +04 03 45.40518
 2018-Sep-14 12:24     00 41 29.356934 +04 03 45.80321
 2018-Sep-14 12:25     00 41 29.345681 +04 03 46.20120
 2018-Sep-14 12:26     00 41 29.334437 +04 03 46.59915
 2018-Sep-14 12:27     00 41 29.323204 +04 03 46.99706
 2018-Sep-14 12:28     00 41 29.311981 +04 03 47.39494
 2018-Sep-14 12:29     00 41 29.300768 +04 03 47.79277
 2018-Sep-14 12:30     00 41 29.289566 +04 03 48.19057
 2018-Sep-14 12:31     00 41 29.278376 +04 03 48.58832
 2018-Sep-14 12:32     00 41 29.267196 +04 03 48.98604
 2018-Sep-14 12:33     00 41 29.256028 +04 03 49.38371
 2018-Sep-14 12:34     00 41 29.244871 +04 03 49.78135
 2018-Sep-14 12:35     00 41 29.233727 +04 03 50.17895
 2018-Sep-14 12:36     00 41 29.222594 +04 03 50.57651
 2018-Sep-14 12:37     00 41 29.211474 +04 03 50.97403
 2018-Sep-14 12:38     00 41 29.200366 +04 03 51.37151
 2018-Sep-14 12:39     00 41 29.189271 +04 03 51.76895
 2018-Sep-14 12:40     00 41 29.178188 +04 03 52.16635
 2018-Sep-14 12:41     00 41 29.167119 +04 03 52.56372
 2018-Sep-14 12:42     00 41 29.156063 +04 03 52.96104
 2018-Sep-14 12:43     00 41 29.145021 +04 03 53.35833
 2018-Sep-14 12:44     00 41 29.133992 +04 03 53.75558
 2018-Sep-14 12:45     00 41 29.122978 +04 03 54.15279
 2018-Sep-14 12:46     00 41 29.111977 +04 03 54.54996
